ONEWEB-0349             
1 49281U 21090C   26028.75950656  .00000023  00000+0  24207-4 0  9990
2 49281  87.9224 302.2628 0001630  79.7605 280.3712 13.20773737211428
ONEWEB-0353             
1 49282U 21090D   26028.83904415  .00000012  00000+0 -80881-6 0  9993
2 49282  87.9030 317.4800 0001539  69.9004 290.2291 13.14503299209275
ONEWEB-0356             
1 49283U 21090E   26028.83369443  .00000059  00000+0  11327-3 0  9996
2 49283  87.9226 302.2412 0002330  59.2767 300.8596 13.20774291211438
ONEWEB-0358             
1 49284U 21090F   26028.71215798  .00000090  00000+0  18881-3 0  9994
2 49284  87.9225 302.2673 0001769  77.2811 282.8520 13.20773610212141
ONEWEB-0359             
1 49285U 21090G   26028.70900232  .00000116  00000+0  25415-3 0  9998
2 49285  87.9235 302.2652 0002077  84.9460 275.1910 13.20773271212127
ONEWEB-0360             
1 49286U 21090H   26028.69952230  .00000134  00000+0  29650-3 0  9997
2 49286  87.9227 302.2736 0001738  81.8355 278.2976 13.20774980211431
ONEWEB-0361             
1 49287U 21090J   26028.75634024  .00000035  00000+0  53925-4 0  9996
2 49287  87.9220 302.2603 0001776  72.2755 287.8572 13.20774622211899
ONEWEB-0362             
1 49288U 21090K   26028.82596130  .00000025  00000+0  31028-4 0  9999
2 49288  87.9235 332.7187 0001616  88.2159 271.9159 13.19727120208530
